{"type": "FeatureCollection", "features": [ {"type": "Feature", "properties": {"norad_id": 32289, "name": "YAOGAN-3", "group": "resource", "lat": 1.7318169382593447, "lon": -158.96611890104785, "alt_km": 601.3186469296625, "timestamp": "2025-12-20T05:41:49.674805+00:00", "meta": {"OBJECT_NAME": "YAOGAN-3", "OBJECT_ID": "2007-055A", "EPOCH": "2025-12-19T22:27:10.213632", "MEAN_MOTION": 14.89888529, "ECCENTRICITY": 0.00011881, "INCLINATION": 97.8359, "RA_OF_ASC_NODE": 20.4962, "ARG_OF_PERICENTER": 73.0706, "MEAN_ANOMALY": 287.0641, "EPHEMERIS_TYPE": 0, "CLASSIFICATION_TYPE": "U", "NORAD_CAT_ID": 32289, "ELEMENT_SET_NO": 999, "REV_AT_EPOCH": 97916, "BSTAR": 0.00011389968, "MEAN_MOTION_DOT": 1.04e-05, "MEAN_MOTION_DDOT": 0}, "tle": {"line1": "1 32289U 07055A   25353.93553488  .00001040  00000+0  11390-3 0  9995", "line2": "2 32289  97.8359  20.4962 0001188  73.0706 287.0641 14.89888529979163"}}, "geometry": {"type": "Point", "coordinates": [-158.96611890104785, 1.7318169382593447]}}, {"type": "Feature", "properties": {"norad_id": 32376, "name": "COSMO-SKYMED 2", "group": "resource", "lat": -67.69473737540943, "lon": -24.284109172776326, "alt_km": 630.727853403444, "timestamp": "2025-12-20T05:41:49.674817+00:00", "meta": {"OBJECT_NAME": "COSMO-SKYMED 2", "OBJECT_ID": "2007-059A", "EPOCH": "2025-12-19T22:05:45.462048", "MEAN_MOTION": 14.8215075, "ECCENTRICITY": 0.00013535, "INCLINATION": 97.8804, "RA_OF_ASC_NODE": 175.1363, "ARG_OF_PERICENTER": 82.9394, "MEAN_ANOMALY": 277.1973, "EPHEMERIS_TYPE": 0, "CLASSIFICATION_TYPE": "U", "NORAD_CAT_ID": 32376, "ELEMENT_SET_NO": 999, "REV_AT_EPOCH": 97544, "BSTAR": 5.1680259e-05, "MEAN_MOTION_DOT": 3.59e-06, "MEAN_MOTION_DDOT": 0}, "tle": {"line1": "1 32376U 07059A   25353.92066507  .00000359  00000+0  51680-4 0  9995", "line2": "2 32376  97.8804 175.1363 0001353  82.9394 277.1973 14.82150750975440"}}, "geometry": {"type": "Point", "coordinates": [-24.284109172776326, -67.69473737540943]}}, {"type": "Feature", "properties": {"norad_id": 32382, "name": "RADARSAT-2", "group": "resource", "lat": -51.43774673886825, "lon": 167.80316034208906, "alt_km": 799.3635951727119, "timestamp": "2025-12-20T05:41:49.674827+00:00", "meta": {"OBJECT_NAME": "RADARSAT-2", "OBJECT_ID": "2007-061A", "EPOCH": "2025-12-19T23:34:36.537312", "MEAN_MOTION": 14.29983859, "ECCENTRICITY": 0.00011092, "INCLINATION": 98.5791, "RA_OF_ASC_NODE": 358.4673, "ARG_OF_PERICENTER": 85.6069, "MEAN_ANOMALY": 274.524, "EPHEMERIS_TYPE": 0, "CLASSIFICATION_TYPE": "U", "NORAD_CAT_ID": 32382, "ELEMENT_SET_NO": 999, "REV_AT_EPOCH": 94034, "BSTAR": 3.9467192e-05, "MEAN_MOTION_DOT": 5.8e-07, "MEAN_MOTION_DDOT": 0}, "tle": {"line1": "1 32382U 07061A   25353.98236733  .00000058  00000+0  39467-4 0  9996", "line2": "2 32382  98.5791 358.4673 0001109  85.6069 274.5240 14.29983859940342"}}, "geometry": {"type": "Point", "coordinates": [167.80316034208906, -51.43774673886825]}}, {"type": "Feature", "properties": {"norad_id": 32783, "name": "CARTOSAT-2A", "group": "resource", "lat": -57.13498027210422, "lon": 56.06438033940425, "alt_km": 633.5134739040441, "timestamp": "2025-12-20T05:41:49.674838+00:00", "meta": {"OBJECT_NAME": "CARTOSAT-2A", "OBJECT_ID": "2008-021A", "EPOCH": "2025-12-19T21:50:22.113024", "MEAN_MOTION": 14.78949388, "ECCENTRICITY": 0.0011298, "INCLINATION": 97.7925, "RA_OF_ASC_NODE": 43.5098, "ARG_OF_PERICENTER": 341.4154, "MEAN_ANOMALY": 18.6644, "EPHEMERIS_TYPE": 0, "CLASSIFICATION_TYPE": "U", "NORAD_CAT_ID": 32783, "ELEMENT_SET_NO": 999, "REV_AT_EPOCH": 95230, "BSTAR": 0.00010597904, "MEAN_MOTION_DOT": 7.32e-06, "MEAN_MOTION_DDOT": 0}, "tle": {"line1": "1 32783U 08021A   25353.90997816  .00000732  00000+0  10598-3 0  9998", "line2": "2 32783  97.7925  43.5098 0011298 341.4154  18.6644 14.78949388952305"}}, "geometry": {"type": "Point", "coordinates": [56.06438033940425, -57.13498027210422]}}, {"type": "Feature", "properties": {"norad_id": 33320, "name": "HUANJING 1A (HJ-1A)", "group": "resource", "lat": -70.95976861149167, "lon": 5.154810716649099, "alt_km": 624.1629693278692, "timestamp": "2025-12-20T05:41:49.674848+00:00", "meta": {"OBJECT_NAME": "HUANJING 1A (HJ-1A)", "OBJECT_ID": "2008-041A", "EPOCH": "2025-12-19T23:32:50.093376", "MEAN_MOTION": 14.83414116, "ECCENTRICITY": 0.00196288, "INCLINATION": 97.6535, "RA_OF_ASC_NODE": 341.9772, "ARG_OF_PERICENTER": 11.3481, "MEAN_ANOMALY": 348.8172, "EPHEMERIS_TYPE": 0, "CLASSIFICATION_TYPE": "U", "NORAD_CAT_ID": 33320, "ELEMENT_SET_NO": 999, "REV_AT_EPOCH": 93183, "BSTAR": 0.00010046819, "MEAN_MOTION_DOT": 7.76e-06, "MEAN_MOTION_DDOT": 0}, "tle": {"line1": "1 33320U 08041A   25353.98113534  .00000776  00000+0  10047-3 0  9990", "line2": "2 33320  97.6535 341.9772 0019628  11.3481 348.8172 14.83414116931835"}}, "geometry": {"type": "Point", "coordinates": [5.154810716649099, -70.95976861149167]}}, {"type": "Feature", "properties": {"norad_id": 33321, "name": "HUANJING 1B (HJ-1B)", "group": "resource", "lat": 45.62278945669864, "lon": 173.78421654163566, "alt_km": 612.5252051930092, "timestamp": "2025-12-20T05:41:49.674859+00:00", "meta": {"OBJECT_NAME": "HUANJING 1B (HJ-1B)", "OBJECT_ID": "2008-041B", "EPOCH": "2025-12-19T22:37:16.821120", "MEAN_MOTION": 14.82839799, "ECCENTRICITY": 0.00379852, "INCLINATION": 97.6395, "RA_OF_ASC_NODE": 345.6183, "ARG_OF_PERICENTER": 53.019, "MEAN_ANOMALY": 307.4492, "EPHEMERIS_TYPE": 0, "CLASSIFICATION_TYPE": "U", "NORAD_CAT_ID": 33321, "ELEMENT_SET_NO": 999, "REV_AT_EPOCH": 93184, "BSTAR": 0.00015884085, "MEAN_MOTION_DOT": 1.25e-05, "MEAN_MOTION_DDOT": 0}, "tle": {"line1": "1 33321U 08041B   25353.94255580  .00001250  00000+0  15884-3 0  9997", "line2": "2 33321  97.6395 345.6183 0037985  53.0190 307.4492 14.82839799931847"}}, "geometry": {"type": "Point", "coordinates": [173.78421654163566, 45.62278945669864]}}, {"type": "Feature", "properties": {"norad_id": 33331, "name": "GEOEYE 1", "group": "resource", "lat": -7.8118279507873805, "lon": 66.54646609292246, "alt_km": 682.285830349856, "timestamp": "2025-12-20T05:41:49.674869+00:00", "meta": {"OBJECT_NAME": "GEOEYE 1", "OBJECT_ID": "2008-042A", "EPOCH": "2025-12-19T18:15:22.928256", "MEAN_MOTION": 14.64709112, "ECCENTRICITY": 0.00028007, "INCLINATION": 98.1245, "RA_OF_ASC_NODE": 64.9529, "ARG_OF_PERICENTER": 254.2617, "MEAN_ANOMALY": 105.8277, "EPHEMERIS_TYPE": 0, "CLASSIFICATION_TYPE": "U", "NORAD_CAT_ID": 33331, "ELEMENT_SET_NO": 999, "REV_AT_EPOCH": 92388, "BSTAR": 8.4483362e-05, "MEAN_MOTION_DOT": 4.02e-06, "MEAN_MOTION_DDOT": 0}, "tle": {"line1": "1 33331U 08042A   25353.76068204  .00000402  00000+0  84483-4 0  9994", "line2": "2 33331  98.1245  64.9529 0002800 254.2617 105.8277 14.64709112923881"}}, "geometry": {"type": "Point", "coordinates": [66.54646609292246, -7.8118279507873805]}}, {"type": "Feature", "properties": {"norad_id": 33396, "name": "THEOS", "group": "resource", "lat": 80.50320487890221, "lon": -12.473695900934038, "alt_km": 816.7602272157455, "timestamp": "2025-12-20T05:41:49.674880+00:00", "meta": {"OBJECT_NAME": "THEOS", "OBJECT_ID": "2008-049A", "EPOCH": "2025-12-19T22:31:48.393984", "MEAN_MOTION": 14.20097491, "ECCENTRICITY": 0.00011717, "INCLINATION": 98.5864, "RA_OF_ASC_NODE": 51.8163, "ARG_OF_PERICENTER": 95.9142, "MEAN_ANOMALY": 264.2169, "EPHEMERIS_TYPE": 0, "CLASSIFICATION_TYPE": "U", "NORAD_CAT_ID": 33396, "ELEMENT_SET_NO": 999, "REV_AT_EPOCH": 89252, "BSTAR": 4.9297604e-05, "MEAN_MOTION_DOT": 6.2e-07, "MEAN_MOTION_DDOT": 0}, "tle": {"line1": "1 33396U 08049A   25353.93875456  .00000062  00000+0  49298-4 0  9993", "line2": "2 33396  98.5864  51.8163 0001171  95.9142 264.2169 14.20097491892523"}}, "geometry": {"type": "Point", "coordinates": [-12.473695900934038, 80.50320487890221]}}, {"type": "Feature", "properties": {"norad_id": 33412, "name": "COSMO-SKYMED 3", "group": "resource", "lat": -47.5424021877265, "lon": -146.57529639506646, "alt_km": 568.3397013758522, "timestamp": "2025-12-20T05:41:49.674907+00:00", "meta": {"OBJECT_NAME": "COSMO-SKYMED 3", "OBJECT_ID": "2008-054A", "EPOCH": "2025-12-19T21:56:06.453312", "MEAN_MOTION": 15.05423109, "ECCENTRICITY": 0.00168567, "INCLINATION": 97.8468, "RA_OF_ASC_NODE": 204.4269, "ARG_OF_PERICENTER": 147.8142, "MEAN_ANOMALY": 212.4117, "EPHEMERIS_TYPE": 0, "CLASSIFICATION_TYPE": "U", "NORAD_CAT_ID": 33412, "ELEMENT_SET_NO": 999, "REV_AT_EPOCH": 92995, "BSTAR": 0.00044734165, "MEAN_MOTION_DOT": 6.377e-05, "MEAN_MOTION_DDOT": 0}, "tle": {"line1": "1 33412U 08054A   25353.91396358  .00006377  00000+0  44734-3 0  9999", "line2": "2 33412  97.8468 204.4269 0016856 147.8142 212.4117 15.05423109929959"}}, "geometry": {"type": "Point", "coordinates": [-146.57529639506646, -47.5424021877265]}}, {"type": "Feature", "properties": {"norad_id": 33446, "name": "YAOGAN-4", "group": "resource", "lat": 41.014455007839, "lon": -82.69016211888386, "alt_km": 619.8446005176493, "timestamp": "2025-12-20T05:41:49.674920+00:00", "meta": {"OBJECT_NAME": "YAOGAN-4", "OBJECT_ID": "2008-061A", "EPOCH": "2025-12-19T10:04:29.303904", "MEAN_MOTION": 14.8270055, "ECCENTRICITY": 0.0013167, "INCLINATION": 97.919, "RA_OF_ASC_NODE": 283.4536, "ARG_OF_PERICENTER": 299.8838, "MEAN_ANOMALY": 60.1067, "EPHEMERIS_TYPE": 0, "CLASSIFICATION_TYPE": "U", "NORAD_CAT_ID": 33446, "ELEMENT_SET_NO": 999, "REV_AT_EPOCH": 91902, "BSTAR": 0.00012167, "MEAN_MOTION_DOT": 9.29e-06, "MEAN_MOTION_DDOT": 0}, "tle": {"line1": "1 33446U 08061A   25353.41978361  .00000929  00000+0  12167-3 0  9991", "line2": "2 33446  97.9190 283.4536 0013167 299.8838  60.1067 14.82700550919026"}}, "geometry": {"type": "Point", "coordinates": [-82.69016211888386, 41.014455007839]}}]}